{
    "CCSDS_OMM_VERS": "3.0",
    "COMMENT": "GENERATED VIA SPACE-TRACK.ORG API",
    "CREATION_DATE": "2025-05-22T17:14:14",
    "ORIGINATOR": "18 SPCS",
    "OBJECT_NAME": "GALILEO 19 (2C5)",
    "OBJECT_ID": "2017-079A",
    "CENTER_NAME": "EARTH",
    "REF_FRAME": "TEME",
    "TIME_SYSTEM": "UTC",
    "MEAN_ELEMENT_THEORY": "SGP4",
    "EPOCH": "2025-05-21T18:21:50.501376",
    "MEAN_MOTION": "1.70474660",
    "ECCENTRICITY": "0.00022730",
    "INCLINATION": "55.2012",
    "RA_OF_ASC_NODE": "232.2772",
    "ARG_OF_PERICENTER": "251.8384",
    "MEAN_ANOMALY": "108.1766",
    "EPHEMERIS_TYPE": "0",
    "CLASSIFICATION_TYPE": "U",
    "NORAD_CAT_ID": "43055",
    "ELEMENT_SET_NO": "999",
    "REV_AT_EPOCH": "4631",
    "BSTAR": "0.00000000000000",
    "MEAN_MOTION_DOT": "0.00000004",
    "MEAN_MOTION_DDOT": "0.0000000000000",
    "SEMIMAJOR_AXIS": "29600.244",
    "PERIOD": "844.700",
    "APOAPSIS": "23228.837",
    "PERIAPSIS": "23215.381",
    "OBJECT_TYPE": "PAYLOAD",
    "RCS_SIZE": "LARGE",
    "COUNTRY_CODE": "ESA",
    "LAUNCH_DATE": "2017-12-12",
    "SITE": "FRGUI",
    "DECAY_DATE": null,
    "FILE": "4736220",
    "GP_ID": "288144402",
    "TLE_LINE0": "0 GALILEO 19 (2C5)",
    "TLE_LINE1": "1 43055U 17079A   25141.76516784  .00000004  00000-0  00000-0 0  9992",
    "TLE_LINE2": "2 43055  55.2012 232.2772 0002273 251.8384 108.1766  1.70474660 46312"
}